STARLINK-2424           
1 47834U 21018AZ  26063.82633272  .00006573  00000+0  23383-3 0  9990
2 47834  53.1578 267.6237 0001307  79.5271 280.5877 15.30203310276002
STARLINK-2426           
1 47836U 21018BB  26062.78761124  .00008884  00000+0  31171-3 0  9995
2 47836  53.1581 272.4188 0001250  65.1202 294.9929 15.30200346275797
STARLINK-2427           
1 47837U 21018BC  26063.91460844  .00003395  00000+0  24673-3 0  9998
2 47837  53.0548 253.0541 0001457  92.7860 267.3296 15.06398781276160
STARLINK-2429           
1 47838U 21018BD  26063.97176769  .00002083  00000+0  82428-4 0  9991
2 47838  53.1593 267.3529 0001169  72.5952 287.5177 15.30201504275966
STARLINK-2431           
1 47839U 21018BE  26063.49383836 -.00002810  00000+0 -82788-4 0  9993
2 47839  53.1613 241.0452 0001269  97.7134 262.4011 15.30195898276302
STARLINK-2432           
1 47840U 21018BF  26063.89984343 -.00000649  00000+0 -24702-4 0  9999
2 47840  53.0557 253.1172 0001204  98.7905 261.3220 15.06416862276152
STARLINK-2433           
1 47841U 21018BG  26063.89618429  .00000207  00000+0  32818-4 0  9994
2 47841  53.0564 253.1352 0001455 110.6363 249.4782 15.06391668276157
STARLINK-2435           
1 47843U 21018BJ  26064.16668981  .01624814  00000+0  55543-1 0  9999
2 47843  53.1430 276.1259 0001457  72.9758 257.8513 15.26583388  5769
STARLINK-2446           
1 47844U 21018BK  26063.55749505  .00001233  00000+0  52495-4 0  9993
2 47844  53.1604 269.7686 0001169  93.1916 266.9219 15.31027511275890
STARLINK-2453           
1 47845U 21018BL  26064.00491138  .00001210  00000+0  10009-3 0  9990
2 47845  53.0554 272.6463 0001592 106.2160 253.9004 15.06403277275894
STARLINK-2280           
1 47861U 21021B   26064.07352869  .00003099  00000+0  11962-3 0  9992
2 47861  53.1596 279.3578 0001450 107.1218 252.9941 15.29372188275695
STARLINK-2291           
1 47862U 21021C   26063.57240877 -.00000933  00000+0 -19372-4 0  9992
2 47862  53.1608 279.0359 0001314  76.3961 283.7186 15.30195351275640
STARLINK-2326           
1 47870U 21021L   26064.04652735 -.00001781  00000+0 -47980-4 0  9992
2 47870  53.1605 302.5500 0001008  56.3317 303.7780 15.30218884275256
STARLINK-2329           
1 47873U 21021P   26063.88952043  .00002545  00000+0  98017-4 0  9995
2 47873  53.1574 277.7571 0001112 102.1603 257.9522 15.30206480275689
STARLINK-2330           
1 47874U 21021Q   26064.16668981  .00048711  00000+0  27418-2 0  9993
2 47874  53.0795 236.8376 0000906 135.0324 187.2123 15.12789359  5660
STARLINK-2336           
1 47879U 21021V   26064.16668981  .00143784  00000+0  42743-2 0  9992
2 47879  53.1591 301.9695 0001308  86.2548  68.3170 15.33738473  5856
STARLINK-2342           
1 47883U 21021Z   26064.16668981  .00125089  00000+0  38068-2 0  9990
2 47883  53.1582 289.1244 0001536 102.7162 121.3688 15.33085838  5895
STARLINK-2343           
1 47884U 21021AA  26064.16668981  .01340877  00000+0  59011-1 0  9996
2 47884  53.1069 301.6280 0001931  95.0313  41.9775 15.18578344  5567
STARLINK-2346           
1 47887U 21021AD  26064.16668981  .00105651  00000+0  50292-2 0  9990
2 47887  53.1022 301.5555 0001596  64.5641  13.8413 15.18308169  5669
STARLINK-2354           
1 47894U 21021AL  26064.03810174  .00025766  00000+0  89436-3 0  9998
2 47894  53.1521 289.7245 0001273 114.0075 246.1059 15.29637777275475
STARLINK-2355           
1 47895U 21021AM  26063.92165739  .00004480  00000+0  16321-3 0  9999
2 47895  53.1563 290.2987 0000966 109.1198 250.9908 15.30218248275499
STARLINK-2356           
1 47896U 21021AN  26064.02546166  .00006522  00000+0  23202-3 0  9994
2 47896  53.1587 302.6550 0001252  94.8814 265.2330 15.30216677275306
STARLINK-2358           
1 47898U 21021AQ  26064.17241009  .00117124  00000+0  39153-2 0  9992
2 47898  53.1551 289.1043 0001433  98.5057 261.6106 15.30112374275508
STARLINK-2361           
1 47901U 21021AT  26064.00855795  .00001714  00000+0  69993-4 0  9996
2 47901  53.1570 277.1363 0001227  92.4844 267.6297 15.30197492275707
STARLINK-2363           
1 47903U 21021AV  26064.16668981  .01180506  00000+0  12563-1 0  9990
2 47903  53.1590 274.3826 0001215  87.7639 282.1437 15.60674542  5821
STARLINK-2364           
1 47904U 21021AW  26064.01064692  .00001883  00000+0  75683-4 0  9998
2 47904  53.1585 277.0313 0001043  81.6336 278.4783 15.30198671275690
STARLINK-2367           
1 47907U 21021AZ  26064.16668981  .01186591  00000+0  50647-1 0  9999
2 47907  53.1103 301.5263 0001868  85.5873  27.5047 15.19522354  5828
STARLINK-2370           
1 47910U 21021BC  26064.02911318  .00014881  00000+0  51319-3 0  9993
2 47910  53.1601 289.7650 0000875 117.6705 242.4384 15.30221232275544
STARLINK-2371           
1 47911U 21021BD  26064.07076222  .00009963  00000+0  34792-3 0  9996
2 47911  53.1569 302.4469 0001107  87.8715 272.2412 15.30213455275201
STARLINK-2378           
1 47916U 21021BJ  26063.87580802  .00005256  00000+0  18937-3 0  9996
2 47916  53.1573 277.7193 0001000  91.0191 269.0924 15.30213411275671
STARLINK-2405           
1 47919U 21021BM  26064.16668981  .01127762  00000+0  50522-1 0  9999
2 47919  53.1040 301.5997 0002090  88.8070  83.8372 15.17989104  5765
STARLINK-1647           
1 47978U 21024B   26064.17309629  .00013946  00000+0  48169-3 0  9992
2 47978  53.1599 353.3818 0001303  95.8475 264.2675 15.30228275273936
STARLINK-2303           
1 47981U 21024E   26064.16668981  .00041194  00000+0  13977-2 0  9998
2 47981  53.1583 353.4627 0001094  90.0630 269.5160 15.30142932  5754
STARLINK-2273           
1 47993U 21024S   26064.16668981  .00122688  00000+0  63090-2 0  9990
2 47993  53.0899 316.7101 0001836  98.6536 110.3463 15.15505531  5770
STARLINK-2266           
1 47997U 21024W   26064.11193417  .00009234  00000+0  32336-3 0  9997
2 47997  53.1602 328.0148 0001071 102.4438 257.6682 15.30215388274287
STARLINK-2270           
1 48000U 21024Z   26064.16668981  .00015133  00000+0  93013-3 0  9995
2 48000  53.0677 262.0886 0000931  73.9153 358.6223 15.10256334  5627
STARLINK-2153           
1 48009U 21024AJ  26063.77332860  .00009371  00000+0  32812-3 0  9991
2 48009  53.1594 332.2329 0001112  94.0539 266.0588 15.30201348274149
STARLINK-2226           
1 48010U 21024AK  26064.16668981  .00043312  00000+0  14682-2 0  9990
2 48010  53.1595 353.4332 0001180  88.5178 346.5567 15.30150432  5749
STARLINK-2285           
1 48019U 21024AU  26063.99606565  .00005497  00000+0  19751-3 0  9994
2 48019  53.1614 328.6649 0001337  83.7319 276.3834 15.30213204274206
STARLINK-2298           
1 48022U 21024AX  26064.16668981  .00073677  00000+0  43015-2 0  9992
2 48022  53.0732 352.1331 0001811  63.9081  33.4862 15.11273109  5746
STARLINK-2292           
1 48023U 21024AY  26063.74644108  .00158367  00000+0  10225-1 0  9997
2 48023  53.0620 353.8030 0000600  79.7422 280.3634 15.07079603273886
STARLINK-2299           
1 48029U 21024BE  26064.16668981  .00074106  00000+0  43103-2 0  9995
2 48029  53.0738 351.8315 0001583  95.0448 194.4895 15.11405616  5661
STARLINK-2404           
1 48093U 21027B   26064.01303899  .00009329  00000+0  32664-3 0  9993
2 48093  53.1615 176.6744 0001133  95.0260 265.0870 15.30207388271940
STARLINK-2412           
1 48094U 21027C   26063.49472771  .00010967  00000+0  38212-3 0  9996
2 48094  53.1595 189.4065 0001490  84.5706 275.5465 15.30176324271727
STARLINK-2414           
1 48095U 21027D   26063.50525326 -.00000596  00000+0 -79853-5 0  9991
2 48095  53.1613 189.3865 0001247 104.1405 255.9734 15.30200220271736
STARLINK-2417           
1 48096U 21027E   26063.50846818  .00000489  00000+0  28635-4 0  9994
2 48096  53.1621 189.6662 0001088  85.3752 274.7373 15.30187304271715
STARLINK-2418           
1 48097U 21027F   26064.01780110 -.00002632  00000+0 -15783-3 0  9997
2 48097  53.0554 172.5917 0001246  86.6386 273.4745 15.06412661271996
STARLINK-2421           
1 48098U 21027G   26063.72755945  .00001916  00000+0  76795-4 0  9996
2 48098  53.1602 177.9911 0001287 106.3094 253.8048 15.30201348271898
STARLINK-2428           
1 48099U 21027H   26064.06522983 -.00000951  00000+0 -19989-4 0  9991
2 48099  53.1627 189.2703 0001261  82.1232 277.9912 15.30186659271768
STARLINK-2430           
1 48100U 21027J   26064.01044167 -.00003148  00000+0 -19265-3 0  9999
2 48100  53.0561 172.6236 0001034  94.6493 265.4614 15.06384249271993
STARLINK-2436           
1 48101U 21027K   26063.72544645  .00000398  00000+0  25570-4 0  9992
2 48101  53.1609 178.0016 0000700  82.1211 277.9870 15.30195825271903
STARLINK-2439           
1 48104U 21027N   26064.00407914  .00002365  00000+0  91938-4 0  9991
2 48104  53.1608 174.5301 0001414 103.4754 256.6404 15.30200165271973
STARLINK-2440           
1 48105U 21027P   26064.16668981  .01496809  00000+0  66228-1 0  9994
2 48105  53.1047 121.6818 0001686 109.6844  47.8767 15.18049062  5628
STARLINK-2442           
1 48106U 21027Q   26064.01413229  .00001884  00000+0  14539-3 0  9996
2 48106  53.0557 172.6192 0001366  83.7490 276.3655 15.06389995271998
STARLINK-2443           
1 48107U 21027R   26064.02886770  .00000988  00000+0  85182-4 0  9990
2 48107  53.0556 172.5433 0001263  86.9699 273.1434 15.06398325271994
STARLINK-2448           
1 48111U 21027V   26063.52317681  .00010816  00000+0  37669-3 0  9996
2 48111  53.1617 178.9414 0001358 106.0191 254.0959 15.30207221271871
STARLINK-2449           
1 48112U 21027W   26064.06839520  .00002327  00000+0  90710-4 0  9993
2 48112  53.1618 189.2800 0001593  82.8142 277.3040 15.30191231271776
STARLINK-2450           
1 48113U 21027X   26063.74648901  .00006022  00000+0  21520-3 0  9997
2 48113  53.1609 188.2482 0001412  86.3569 273.7593 15.30213309271745
STARLINK-2452           
1 48115U 21027Z   26064.02675311  .00000230  00000+0  19885-4 0  9993
2 48115  53.1619 176.5990 0001178  87.5913 272.5223 15.30181567271935
